CCSDS_OMM_VERS = 2.0
CREATION_DATE  = 
ORIGINATOR     = 

OBJECT_NAME    = SL-4 R/B
OBJECT_ID      = 2014-021B
CENTER_NAME    = EARTH
REF_FRAME      = TEME
TIME_SYSTEM    = UTC
MEAN_ELEMENT_THEORY = SGP/SGP4

EPOCH          = 2026-01-13T16:02:22.828992
MEAN_MOTION    = 15.37501919
ECCENTRICITY   = .0099398
INCLINATION    = 51.6066
RA_OF_ASC_NODE = 245.3328
ARG_OF_PERICENTER = 262.0464
MEAN_ANOMALY   = 96.9230

EPHEMERIS_TYPE = 0
CLASSIFICATION_TYPE = U
NORAD_CAT_ID   = 39679
ELEMENT_SET_NO = 999
REV_AT_EPOCH   = 64780
BSTAR          = .15480015E-3
MEAN_MOTION_DOT = .6387E-4
MEAN_MOTION_DDOT = 0

CCSDS_OMM_VERS = 2.0
CREATION_DATE  = 
ORIGINATOR     = 

OBJECT_NAME    = ALOS-2
OBJECT_ID      = 2014-029A
CENTER_NAME    = EARTH
REF_FRAME      = TEME
TIME_SYSTEM    = UTC
MEAN_ELEMENT_THEORY = SGP/SGP4

EPOCH          = 2026-01-13T14:21:17.364096
MEAN_MOTION    = 14.79479846
ECCENTRICITY   = .00014248
INCLINATION    = 97.9203
RA_OF_ASC_NODE = 112.9881
ARG_OF_PERICENTER = 97.0689
MEAN_ANOMALY   = 263.0684

EPHEMERIS_TYPE = 0
CLASSIFICATION_TYPE = U
NORAD_CAT_ID   = 39766
ELEMENT_SET_NO = 999
REV_AT_EPOCH   = 62872
BSTAR          = .53041464E-4
MEAN_MOTION_DOT = .345E-5
MEAN_MOTION_DDOT = 0

CCSDS_OMM_VERS = 2.0
CREATION_DATE  = 
ORIGINATOR     = 

OBJECT_NAME    = YAOGAN-29
OBJECT_ID      = 2015-069A
CENTER_NAME    = EARTH
REF_FRAME      = TEME
TIME_SYSTEM    = UTC
MEAN_ELEMENT_THEORY = SGP/SGP4

EPOCH          = 2026-01-13T14:25:25.579200
MEAN_MOTION    = 14.82922540
ECCENTRICITY   = .00021684
INCLINATION    = 98.0204
RA_OF_ASC_NODE = 41.8718
ARG_OF_PERICENTER = 128.0986
MEAN_ANOMALY   = 232.0423

EPHEMERIS_TYPE = 0
CLASSIFICATION_TYPE = U
NORAD_CAT_ID   = 41038
ELEMENT_SET_NO = 999
REV_AT_EPOCH   = 54771
BSTAR          = .7761966E-5
MEAN_MOTION_DOT = .9E-7
MEAN_MOTION_DDOT = 0

CCSDS_OMM_VERS = 2.0
CREATION_DATE  = 
ORIGINATOR     = 

OBJECT_NAME    = ASTRO-H (HITOMI)
OBJECT_ID      = 2016-012A
CENTER_NAME    = EARTH
REF_FRAME      = TEME
TIME_SYSTEM    = UTC
MEAN_ELEMENT_THEORY = SGP/SGP4

EPOCH          = 2026-01-13T15:05:53.163456
MEAN_MOTION    = 15.09588514
ECCENTRICITY   = .00096522
INCLINATION    = 31.0012
RA_OF_ASC_NODE = 351.7531
ARG_OF_PERICENTER = 140.7113
MEAN_ANOMALY   = 219.4227

EPHEMERIS_TYPE = 0
CLASSIFICATION_TYPE = U
NORAD_CAT_ID   = 41337
ELEMENT_SET_NO = 999
REV_AT_EPOCH   = 54390
BSTAR          = .12381464E-3
MEAN_MOTION_DOT = .2134E-4
MEAN_MOTION_DDOT = 0

CCSDS_OMM_VERS = 2.0
CREATION_DATE  = 
ORIGINATOR     = 

OBJECT_NAME    = HXMT (HUIYAN)
OBJECT_ID      = 2017-034A
CENTER_NAME    = EARTH
REF_FRAME      = TEME
TIME_SYSTEM    = UTC
MEAN_ELEMENT_THEORY = SGP/SGP4

EPOCH          = 2026-01-13T12:55:26.198688
MEAN_MOTION    = 15.16697532
ECCENTRICITY   = .00334915
INCLINATION    = 43.0159
RA_OF_ASC_NODE = 323.1156
ARG_OF_PERICENTER = 246.8526
MEAN_ANOMALY   = 112.8792

EPHEMERIS_TYPE = 0
CLASSIFICATION_TYPE = U
NORAD_CAT_ID   = 42758
ELEMENT_SET_NO = 999
REV_AT_EPOCH   = 47416
BSTAR          = .26266222E-3
MEAN_MOTION_DOT = .5075E-4
MEAN_MOTION_DDOT = 0

CCSDS_OMM_VERS = 2.0
CREATION_DATE  = 
ORIGINATOR     = 

OBJECT_NAME    = CZ-2C R/B
OBJECT_ID      = 2018-054D
CENTER_NAME    = EARTH
REF_FRAME      = TEME
TIME_SYSTEM    = UTC
MEAN_ELEMENT_THEORY = SGP/SGP4

EPOCH          = 2026-01-13T05:46:58.776384
MEAN_MOTION    = 15.82695941
ECCENTRICITY   = .0010235
INCLINATION    = 35.1341
RA_OF_ASC_NODE = 326.0528
ARG_OF_PERICENTER = 113.0583
MEAN_ANOMALY   = 247.1233

EPHEMERIS_TYPE = 0
CLASSIFICATION_TYPE = U
NORAD_CAT_ID   = 43521
ELEMENT_SET_NO = 999
REV_AT_EPOCH   = 42003
BSTAR          = .77147792E-3
MEAN_MOTION_DOT = .172913E-2
MEAN_MOTION_DDOT = 0

CCSDS_OMM_VERS = 2.0
CREATION_DATE  = 
ORIGINATOR     = 

OBJECT_NAME    = SAOCOM 1A
OBJECT_ID      = 2018-076A
CENTER_NAME    = EARTH
REF_FRAME      = TEME
TIME_SYSTEM    = UTC
MEAN_ELEMENT_THEORY = SGP/SGP4

EPOCH          = 2026-01-13T14:30:18.146016
MEAN_MOTION    = 14.82146574
ECCENTRICITY   = .00014782
INCLINATION    = 97.8854
RA_OF_ASC_NODE = 202.5632
ARG_OF_PERICENTER = 86.9973
MEAN_ANOMALY   = 273.1409

EPHEMERIS_TYPE = 0
CLASSIFICATION_TYPE = U
NORAD_CAT_ID   = 43641
ELEMENT_SET_NO = 999
REV_AT_EPOCH   = 39320
BSTAR          = .7289E-6
MEAN_MOTION_DOT = -.46E-6
MEAN_MOTION_DDOT = 0

CCSDS_OMM_VERS = 2.0
CREATION_DATE  = 
ORIGINATOR     = 

OBJECT_NAME    = H-2A R/B
OBJECT_ID      = 2018-084L
CENTER_NAME    = EARTH
REF_FRAME      = TEME
TIME_SYSTEM    = UTC
MEAN_ELEMENT_THEORY = SGP/SGP4

EPOCH          = 2026-01-13T13:42:27.007488
MEAN_MOTION    = 15.38765565
ECCENTRICITY   = .00258947
INCLINATION    = 98.8768
RA_OF_ASC_NODE = 219.2840
ARG_OF_PERICENTER = 213.8484
MEAN_ANOMALY   = 146.1105

EPHEMERIS_TYPE = 0
CLASSIFICATION_TYPE = U
NORAD_CAT_ID   = 43682
ELEMENT_SET_NO = 999
REV_AT_EPOCH   = 39729
BSTAR          = .34567864E-3
MEAN_MOTION_DOT = .13295E-3
MEAN_MOTION_DDOT = 0

CCSDS_OMM_VERS = 2.0
CREATION_DATE  = 
ORIGINATOR     = 

OBJECT_NAME    = SAOCOM 1B
OBJECT_ID      = 2020-059A
CENTER_NAME    = EARTH
REF_FRAME      = TEME
TIME_SYSTEM    = UTC
MEAN_ELEMENT_THEORY = SGP/SGP4

EPOCH          = 2026-01-13T15:15:13.844160
MEAN_MOTION    = 14.82149129
ECCENTRICITY   = .00013452
INCLINATION    = 97.8852
RA_OF_ASC_NODE = 201.6932
ARG_OF_PERICENTER = 85.0201
MEAN_ANOMALY   = 275.1165

EPHEMERIS_TYPE = 0
CLASSIFICATION_TYPE = U
NORAD_CAT_ID   = 46265
ELEMENT_SET_NO = 999
REV_AT_EPOCH   = 29059
BSTAR          = .58545797E-4
MEAN_MOTION_DOT = .414E-5
MEAN_MOTION_DDOT = 0

CCSDS_OMM_VERS = 2.0
CREATION_DATE  = 
ORIGINATOR     = 

OBJECT_NAME    = CSS (TIANHE)
OBJECT_ID      = 2021-035A
CENTER_NAME    = EARTH
REF_FRAME      = TEME
TIME_SYSTEM    = UTC
MEAN_ELEMENT_THEORY = SGP/SGP4

EPOCH          = 2026-01-13T12:50:56.454432
MEAN_MOTION    = 15.60479529
ECCENTRICITY   = .00114815
INCLINATION    = 41.4652
RA_OF_ASC_NODE = 183.4811
ARG_OF_PERICENTER = 277.6213
MEAN_ANOMALY   = 82.3322

EPHEMERIS_TYPE = 0
CLASSIFICATION_TYPE = U
NORAD_CAT_ID   = 48274
ELEMENT_SET_NO = 999
REV_AT_EPOCH   = 26899
BSTAR          = .16214447E-3
MEAN_MOTION_DOT = .13458E-3
MEAN_MOTION_DDOT = 0

CCSDS_OMM_VERS = 2.0
CREATION_DATE  = 
ORIGINATOR     = 

OBJECT_NAME    = COSMOS 2550
OBJECT_ID      = 2021-056A
CENTER_NAME    = EARTH
REF_FRAME      = TEME
TIME_SYSTEM    = UTC
MEAN_ELEMENT_THEORY = SGP/SGP4

EPOCH          = 2026-01-13T14:42:04.658688
MEAN_MOTION    = 15.33827602
ECCENTRICITY   = .00083915
INCLINATION    = 67.1412
RA_OF_ASC_NODE = 207.5275
ARG_OF_PERICENTER = 270.8607
MEAN_ANOMALY   = 89.1586

EPHEMERIS_TYPE = 0
CLASSIFICATION_TYPE = U
NORAD_CAT_ID   = 48865
ELEMENT_SET_NO = 999
REV_AT_EPOCH   = 25501
BSTAR          = .407163E-6
MEAN_MOTION_DOT = -.178E-5
MEAN_MOTION_DDOT = 0

CCSDS_OMM_VERS = 2.0
CREATION_DATE  = 
ORIGINATOR     = 

OBJECT_NAME    = CZ-2C R/B
OBJECT_ID      = 2022-058K
CENTER_NAME    = EARTH
REF_FRAME      = TEME
TIME_SYSTEM    = UTC
MEAN_ELEMENT_THEORY = SGP/SGP4

EPOCH          = 2026-01-13T00:30:50.060736
MEAN_MOTION    = 15.50415241
ECCENTRICITY   = .00431
INCLINATION    = 50.1896
RA_OF_ASC_NODE = 243.8028
ARG_OF_PERICENTER = 326.7511
MEAN_ANOMALY   = 33.0752

EPHEMERIS_TYPE = 0
CLASSIFICATION_TYPE = U
NORAD_CAT_ID   = 52794
ELEMENT_SET_NO = 999
REV_AT_EPOCH   = 20148
BSTAR          = .27982811E-3
MEAN_MOTION_DOT = .16407E-3
MEAN_MOTION_DDOT = 0

