SL-4 R/B                
1 39679U 14021B   26013.66831978  .00006387  00000+0  15480-3 0  9996
2 39679  51.6066 245.3328 0099398 262.0464  96.9230 15.37501919647804
ALOS-2                  
1 39766U 14029A   26013.59811764  .00000345  00000+0  53041-4 0  9998
2 39766  97.9203 112.9881 0001424  97.0689 263.0684 14.79479846628726
YAOGAN-29               
1 41038U 15069A   26013.60099050  .00000009  00000+0  77620-5 0  9993
2 41038  98.0204  41.8718 0002168 128.0986 232.0423 14.82922540547718
ASTRO-H (HITOMI)        
1 41337U 16012A   26013.62908754  .00002134  00000+0  12381-3 0  9998
2 41337  31.0012 351.7531 0009652 140.7113 219.4227 15.09588514543905
HXMT (HUIYAN)           
1 42758U 17034A   26013.53849767  .00005075  00000+0  26266-3 0  9993
2 42758  43.0159 323.1156 0033491 246.8526 112.8792 15.16697532474161
CZ-2C R/B               
1 43521U 18054D   26013.24095806  .00172913  00000+0  77148-3 0  9991
2 43521  35.1341 326.0528 0010235 113.0583 247.1233 15.82695941420033
SAOCOM 1A               
1 43641U 18076A   26013.60437669 -.00000046  00000+0  72890-6 0  9995
2 43641  97.8854 202.5632 0001478  86.9973 273.1409 14.82146574393208
H-2A R/B                
1 43682U 18084L   26013.57114592  .00013295  00000+0  34568-3 0  9998
2 43682  98.8768 219.2840 0025894 213.8484 146.1105 15.38765565397294
SAOCOM 1B               
1 46265U 20059A   26013.63557690  .00000414  00000+0  58546-4 0  9992
2 46265  97.8852 201.6932 0001345  85.0201 275.1165 14.82149129290599
CSS (TIANHE)            
1 48274U 21035A   26013.53537563  .00013458  00000+0  16214-3 0  9992
2 48274  41.4652 183.4811 0011481 277.6213  82.3322 15.60479529268990
COSMOS 2550             
1 48865U 21056A   26013.61255392 -.00000178  00000+0  40716-6 0  9990
2 48865  67.1412 207.5275 0008391 270.8607  89.1586 15.33827602255010
CZ-2C R/B               
1 52794U 22058K   26013.02141274  .00016407  00000+0  27983-3 0  9996
2 52794  50.1896 243.8028 0043100 326.7511  33.0752 15.50415241201481
